ONEWEB-0716             
1 55177U 23004AP  24287.07557701  .00000176  00000+0  41987-3 0  9994
2 55177  87.9084 127.8230 0001704  91.6874 268.4453 13.17648396 86973
ONEWEB-0717             
1 55178U 23004AQ  24287.05869180  .00000168  00000+0  39855-3 0  9992
2 55178  87.9083 127.7888 0001092  53.6262 306.4970 13.17650251 87027
ONEWEB-0719             
1 55179U 23004AR  24287.52441973 -.00000201  00000+0 -55073-3 0  9991
2 55179  87.9081 127.6816 0001537  93.4487 266.6820 13.17648470 87033
ONEWEB-0530             
1 55796U 23029A   24287.35437122  .00000045  00000+0  78313-4 0  9992
2 55796  87.9282  36.1797 0001252 109.3924 250.7344 13.20773593 81094
ONEWEB-0534             
1 55797U 23029B   24287.34174695 -.00000058  00000+0 -17375-3 0  9991
2 55797  87.9283  36.1892 0001923 104.1308 256.0039 13.20774830 80382
ONEWEB-0556             
1 55798U 23029C   24287.34805056  .00000111  00000+0  24123-3 0  9991
2 55798  87.9280  36.1812 0001793 130.7994 229.3295 13.20776382 81071
ONEWEB-0562             
1 55799U 23029D   24287.33543000  .00000141  00000+0  31447-3 0  9999
2 55799  87.9285  36.1749 0001177 134.8116 225.3114 13.20773706 80389
ONEWEB-0563             
1 55800U 23029E   24287.32912061  .00000204  00000+0  47088-3 0  9996
2 55800  87.9286  36.1909 0002145 106.1693 253.9676 13.20774710 80374
