<?xml version="1.0" encoding="UTF-8"?>
<ndm xmlns:xsi="http://www.w3.org/2001/XMLSchema-instance" xsi:noNamespaceSchemaLocation="https://sanaregistry.org/r/ndmxml_unqualified/ndmxml-2.0.0-master-2.0.xsd">
<omm id="CCSDS_OMM_VERS" version="2.0">
<header><CREATION_DATE/><ORIGINATOR/></header><body><segment><metadata><OBJECT_NAME>ONEWEB-0716</OBJECT_NAME><OBJECT_ID>2023-004AP</OBJECT_ID><CENTER_NAME>EARTH</CENTER_NAME><REF_FRAME>TEME</REF_FRAME><TIME_SYSTEM>UTC</TIME_SYSTEM><MEAN_ELEMENT_THEORY>SGP4</MEAN_ELEMENT_THEORY></metadata><data><meanElements><EPOCH>2024-10-13T01:48:49.853664</EPOCH><MEAN_MOTION>13.17648396</MEAN_MOTION><ECCENTRICITY>.0001704</ECCENTRICITY><INCLINATION>87.9084</INCLINATION><RA_OF_ASC_NODE>127.8230</RA_OF_ASC_NODE><ARG_OF_PERICENTER>91.6874</ARG_OF_PERICENTER><MEAN_ANOMALY>268.4453</MEAN_ANOMALY></meanElements><tleParameters><EPHEMERIS_TYPE>0</EPHEMERIS_TYPE><CLASSIFICATION_TYPE>U</CLASSIFICATION_TYPE><NORAD_CAT_ID>55177</NORAD_CAT_ID><ELEMENT_SET_NO>999</ELEMENT_SET_NO><REV_AT_EPOCH>8697</REV_AT_EPOCH><BSTAR>.41987E-3</BSTAR><MEAN_MOTION_DOT>.176E-5</MEAN_MOTION_DOT><MEAN_MOTION_DDOT>0</MEAN_MOTION_DDOT></tleParameters></data></segment></body></omm>
<omm id="CCSDS_OMM_VERS" version="2.0">
<header><CREATION_DATE/><ORIGINATOR/></header><body><segment><metadata><OBJECT_NAME>ONEWEB-0717</OBJECT_NAME><OBJECT_ID>2023-004AQ</OBJECT_ID><CENTER_NAME>EARTH</CENTER_NAME><REF_FRAME>TEME</REF_FRAME><TIME_SYSTEM>UTC</TIME_SYSTEM><MEAN_ELEMENT_THEORY>SGP4</MEAN_ELEMENT_THEORY></metadata><data><meanElements><EPOCH>2024-10-13T01:24:30.971520</EPOCH><MEAN_MOTION>13.17650251</MEAN_MOTION><ECCENTRICITY>.0001092</ECCENTRICITY><INCLINATION>87.9083</INCLINATION><RA_OF_ASC_NODE>127.7888</RA_OF_ASC_NODE><ARG_OF_PERICENTER>53.6262</ARG_OF_PERICENTER><MEAN_ANOMALY>306.4970</MEAN_ANOMALY></meanElements><tleParameters><EPHEMERIS_TYPE>0</EPHEMERIS_TYPE><CLASSIFICATION_TYPE>U</CLASSIFICATION_TYPE><NORAD_CAT_ID>55178</NORAD_CAT_ID><ELEMENT_SET_NO>999</ELEMENT_SET_NO><REV_AT_EPOCH>8702</REV_AT_EPOCH><BSTAR>.39855E-3</BSTAR><MEAN_MOTION_DOT>.168E-5</MEAN_MOTION_DOT><MEAN_MOTION_DDOT>0</MEAN_MOTION_DDOT></tleParameters></data></segment></body></omm>
<omm id="CCSDS_OMM_VERS" version="2.0">
<header><CREATION_DATE/><ORIGINATOR/></header><body><segment><metadata><OBJECT_NAME>ONEWEB-0719</OBJECT_NAME><OBJECT_ID>2023-004AR</OBJECT_ID><CENTER_NAME>EARTH</CENTER_NAME><REF_FRAME>TEME</REF_FRAME><TIME_SYSTEM>UTC</TIME_SYSTEM><MEAN_ELEMENT_THEORY>SGP4</MEAN_ELEMENT_THEORY></metadata><data><meanElements><EPOCH>2024-10-13T12:35:09.864672</EPOCH><MEAN_MOTION>13.17648470</MEAN_MOTION><ECCENTRICITY>.0001537</ECCENTRICITY><INCLINATION>87.9081</INCLINATION><RA_OF_ASC_NODE>127.6816</RA_OF_ASC_NODE><ARG_OF_PERICENTER>93.4487</ARG_OF_PERICENTER><MEAN_ANOMALY>266.6820</MEAN_ANOMALY></meanElements><tleParameters><EPHEMERIS_TYPE>0</EPHEMERIS_TYPE><CLASSIFICATION_TYPE>U</CLASSIFICATION_TYPE><NORAD_CAT_ID>55179</NORAD_CAT_ID><ELEMENT_SET_NO>999</ELEMENT_SET_NO><REV_AT_EPOCH>8703</REV_AT_EPOCH><BSTAR>-.55073E-3</BSTAR><MEAN_MOTION_DOT>-.201E-5</MEAN_MOTION_DOT><MEAN_MOTION_DDOT>0</MEAN_MOTION_DDOT></tleParameters></data></segment></body></omm>
<omm id="CCSDS_OMM_VERS" version="2.0">
<header><CREATION_DATE/><ORIGINATOR/></header><body><segment><metadata><OBJECT_NAME>ONEWEB-0530</OBJECT_NAME><OBJECT_ID>2023-029A</OBJECT_ID><CENTER_NAME>EARTH</CENTER_NAME><REF_FRAME>TEME</REF_FRAME><TIME_SYSTEM>UTC</TIME_SYSTEM><MEAN_ELEMENT_THEORY>SGP4</MEAN_ELEMENT_THEORY></metadata><data><meanElements><EPOCH>2024-10-13T08:30:17.673408</EPOCH><MEAN_MOTION>13.20773593</MEAN_MOTION><ECCENTRICITY>.0001252</ECCENTRICITY><INCLINATION>87.9282</INCLINATION><RA_OF_ASC_NODE>36.1797</RA_OF_ASC_NODE><ARG_OF_PERICENTER>109.3924</ARG_OF_PERICENTER><MEAN_ANOMALY>250.7344</MEAN_ANOMALY></meanElements><tleParameters><EPHEMERIS_TYPE>0</EPHEMERIS_TYPE><CLASSIFICATION_TYPE>U</CLASSIFICATION_TYPE><NORAD_CAT_ID>55796</NORAD_CAT_ID><ELEMENT_SET_NO>999</ELEMENT_SET_NO><REV_AT_EPOCH>8109</REV_AT_EPOCH><BSTAR>.78313E-4</BSTAR><MEAN_MOTION_DOT>.45E-6</MEAN_MOTION_DOT><MEAN_MOTION_DDOT>0</MEAN_MOTION_DDOT></tleParameters></data></segment></body></omm>
<omm id="CCSDS_OMM_VERS" version="2.0">
<header><CREATION_DATE/><ORIGINATOR/></header><body><segment><metadata><OBJECT_NAME>ONEWEB-0534</OBJECT_NAME><OBJECT_ID>2023-029B</OBJECT_ID><CENTER_NAME>EARTH</CENTER_NAME><REF_FRAME>TEME</REF_FRAME><TIME_SYSTEM>UTC</TIME_SYSTEM><MEAN_ELEMENT_THEORY>SGP4</MEAN_ELEMENT_THEORY></metadata><data><meanElements><EPOCH>2024-10-13T08:12:06.936480</EPOCH><MEAN_MOTION>13.20774830</MEAN_MOTION><ECCENTRICITY>.0001923</ECCENTRICITY><INCLINATION>87.9283</INCLINATION><RA_OF_ASC_NODE>36.1892</RA_OF_ASC_NODE><ARG_OF_PERICENTER>104.1308</ARG_OF_PERICENTER><MEAN_ANOMALY>256.0039</MEAN_ANOMALY></meanElements><tleParameters><EPHEMERIS_TYPE>0</EPHEMERIS_TYPE><CLASSIFICATION_TYPE>U</CLASSIFICATION_TYPE><NORAD_CAT_ID>55797</NORAD_CAT_ID><ELEMENT_SET_NO>999</ELEMENT_SET_NO><REV_AT_EPOCH>8038</REV_AT_EPOCH><BSTAR>-.17375E-3</BSTAR><MEAN_MOTION_DOT>-.58E-6</MEAN_MOTION_DOT><MEAN_MOTION_DDOT>0</MEAN_MOTION_DDOT></tleParameters></data></segment></body></omm>
<omm id="CCSDS_OMM_VERS" version="2.0">
<header><CREATION_DATE/><ORIGINATOR/></header><body><segment><metadata><OBJECT_NAME>ONEWEB-0556</OBJECT_NAME><OBJECT_ID>2023-029C</OBJECT_ID><CENTER_NAME>EARTH</CENTER_NAME><REF_FRAME>TEME</REF_FRAME><TIME_SYSTEM>UTC</TIME_SYSTEM><MEAN_ELEMENT_THEORY>SGP4</MEAN_ELEMENT_THEORY></metadata><data><meanElements><EPOCH>2024-10-13T08:21:11.568384</EPOCH><MEAN_MOTION>13.20776382</MEAN_MOTION><ECCENTRICITY>.0001793</ECCENTRICITY><INCLINATION>87.9280</INCLINATION><RA_OF_ASC_NODE>36.1812</RA_OF_ASC_NODE><ARG_OF_PERICENTER>130.7994</ARG_OF_PERICENTER><MEAN_ANOMALY>229.3295</MEAN_ANOMALY></meanElements><tleParameters><EPHEMERIS_TYPE>0</EPHEMERIS_TYPE><CLASSIFICATION_TYPE>U</CLASSIFICATION_TYPE><NORAD_CAT_ID>55798</NORAD_CAT_ID><ELEMENT_SET_NO>999</ELEMENT_SET_NO><REV_AT_EPOCH>8107</REV_AT_EPOCH><BSTAR>.24123E-3</BSTAR><MEAN_MOTION_DOT>.111E-5</MEAN_MOTION_DOT><MEAN_MOTION_DDOT>0</MEAN_MOTION_DDOT></tleParameters></data></segment></body></omm>
<omm id="CCSDS_OMM_VERS" version="2.0">
<header><CREATION_DATE/><ORIGINATOR/></header><body><segment><metadata><OBJECT_NAME>ONEWEB-0562</OBJECT_NAME><OBJECT_ID>2023-029D</OBJECT_ID><CENTER_NAME>EARTH</CENTER_NAME><REF_FRAME>TEME</REF_FRAME><TIME_SYSTEM>UTC</TIME_SYSTEM><MEAN_ELEMENT_THEORY>SGP4</MEAN_ELEMENT_THEORY></metadata><data><meanElements><EPOCH>2024-10-13T08:03:01.152000</EPOCH><MEAN_MOTION>13.20773706</MEAN_MOTION><ECCENTRICITY>.0001177</ECCENTRICITY><INCLINATION>87.9285</INCLINATION><RA_OF_ASC_NODE>36.1749</RA_OF_ASC_NODE><ARG_OF_PERICENTER>134.8116</ARG_OF_PERICENTER><MEAN_ANOMALY>225.3114</MEAN_ANOMALY></meanElements><tleParameters><EPHEMERIS_TYPE>0</EPHEMERIS_TYPE><CLASSIFICATION_TYPE>U</CLASSIFICATION_TYPE><NORAD_CAT_ID>55799</NORAD_CAT_ID><ELEMENT_SET_NO>999</ELEMENT_SET_NO><REV_AT_EPOCH>8038</REV_AT_EPOCH><BSTAR>.31447E-3</BSTAR><MEAN_MOTION_DOT>.141E-5</MEAN_MOTION_DOT><MEAN_MOTION_DDOT>0</MEAN_MOTION_DDOT></tleParameters></data></segment></body></omm>
<omm id="CCSDS_OMM_VERS" version="2.0">
<header><CREATION_DATE/><ORIGINATOR/></header><body><segment><metadata><OBJECT_NAME>ONEWEB-0563</OBJECT_NAME><OBJECT_ID>2023-029E</OBJECT_ID><CENTER_NAME>EARTH</CENTER_NAME><REF_FRAME>TEME</REF_FRAME><TIME_SYSTEM>UTC</TIME_SYSTEM><MEAN_ELEMENT_THEORY>SGP4</MEAN_ELEMENT_THEORY></metadata><data><meanElements><EPOCH>2024-10-13T07:53:56.020704</EPOCH><MEAN_MOTION>13.20774710</MEAN_MOTION><ECCENTRICITY>.0002145</ECCENTRICITY><INCLINATION>87.9286</INCLINATION><RA_OF_ASC_NODE>36.1909</RA_OF_ASC_NODE><ARG_OF_PERICENTER>106.1693</ARG_OF_PERICENTER><MEAN_ANOMALY>253.9676</MEAN_ANOMALY></meanElements><tleParameters><EPHEMERIS_TYPE>0</EPHEMERIS_TYPE><CLASSIFICATION_TYPE>U</CLASSIFICATION_TYPE><NORAD_CAT_ID>55800</NORAD_CAT_ID><ELEMENT_SET_NO>999</ELEMENT_SET_NO><REV_AT_EPOCH>8037</REV_AT_EPOCH><BSTAR>.47088E-3</BSTAR><MEAN_MOTION_DOT>.204E-5</MEAN_MOTION_DOT><MEAN_MOTION_DDOT>0</MEAN_MOTION_DDOT></tleParameters></data></segment></body></omm>

</ndm>
